{
  "type": "FeatureCollection",
  "features": [
    {
      "type": "Feature",
      "properties": {
        "norad_id": 58655,
        "name": "BEIDOU-3 M26 (C48)",
        "group": "beidou",
        "lat": -36.60364884522173,
        "lon": -81.13000856897185,
        "alt_km": 21522.931358811402,
        "timestamp": "2025-12-21T03:56:51.102764+00:00",
        "meta_object_name": "BEIDOU-3 M26 (C48)",
        "meta_object_id": "2023-207B",
        "meta_epoch": "2025-12-19T05:11:10.015296",
        "meta_mean_motion": 1.86231346,
        "meta_eccentricity": 0.0004042,
        "meta_inclination": 55.592,
        "meta_ra_of_asc_node": 68.3684,
        "meta_arg_of_pericenter": 258.4158,
        "meta_mean_anomaly": 101.5732,
        "meta_ephemeris_type": 0,
        "meta_classification_type": "U",
        "meta_norad_cat_id": 58655,
        "meta_element_set_no": 999,
        "meta_rev_at_epoch": 1347,
        "meta_bstar": 0,
        "meta_mean_motion_dot": -5.7e-07,
        "meta_mean_motion_ddot": 0,
        "tle_line1": "1 58655U 23207B   25353.21608814 -.00000057  00000+0  00000+0 0  9992",
        "tle_line2": "2 58655  55.5920  68.3684 0004042 258.4158 101.5732  1.86231346 13473"
      },
      "geometry": {
        "type": "Point",
        "coordinates": [
          -81.13000856897185,
          -36.60364884522173
        ]
      }
    },
    {
      "type": "Feature",
      "properties": {
        "norad_id": 61186,
        "name": "BEIDOU-3 M25 (C47)",
        "group": "beidou",
        "lat": -13.620914398056188,
        "lon": -61.49423182289506,
        "alt_km": 21519.08012152732,
        "timestamp": "2025-12-21T03:56:51.102774+00:00",
        "meta_object_name": "BEIDOU-3 M25 (C47)",
        "meta_object_id": "2024-168B",
        "meta_epoch": "2025-12-20T04:50:33.841248",
        "meta_mean_motion": 1.86230266,
        "meta_eccentricity": 0.00054523,
        "meta_inclination": 54.6355,
        "meta_ra_of_asc_node": 308.462,
        "meta_arg_of_pericenter": 299.4821,
        "meta_mean_anomaly": 118.2458,
        "meta_ephemeris_type": 0,
        "meta_classification_type": "U",
        "meta_norad_cat_id": 61186,
        "meta_element_set_no": 999,
        "meta_rev_at_epoch": 845,
        "meta_bstar": 0,
        "meta_mean_motion_dot": -7.1e-07,
        "meta_mean_motion_ddot": 0,
        "tle_line1": "1 61186U 24168B   25354.20178057 -.00000071  00000+0  00000+0 0  9999",
        "tle_line2": "2 61186  54.6355 308.4620 0005452 299.4821 118.2458  1.86230266  8456"
      },
      "geometry": {
        "type": "Point",
        "coordinates": [
          -61.49423182289506,
          -13.620914398056188
        ]
      }
    },
    {
      "type": "Feature",
      "properties": {
        "norad_id": 61187,
        "name": "BEIDOU-3 M27 (C49)",
        "group": "beidou",
        "lat": 45.96308593083507,
        "lon": 81.17546575498143,
        "alt_km": 21527.87061315698,
        "timestamp": "2025-12-21T03:56:51.102784+00:00",
        "meta_object_name": "BEIDOU-3 M27 (C49)",
        "meta_object_id": "2024-168C",
        "meta_epoch": "2025-12-20T17:20:25.638144",
        "meta_mean_motion": 1.86230401,
        "meta_eccentricity": 0.0002527,
        "meta_inclination": 54.6304,
        "meta_ra_of_asc_node": 308.4277,
        "meta_arg_of_pericenter": 339.9286,
        "meta_mean_anomaly": 201.8737,
        "meta_ephemeris_type": 0,
        "meta_classification_type": "U",
        "meta_norad_cat_id": 61187,
        "meta_element_set_no": 999,
        "meta_rev_at_epoch": 593,
        "meta_bstar": 0,
        "meta_mean_motion_dot": -6.7e-07,
        "meta_mean_motion_ddot": 0,
        "tle_line1": "1 61187U 24168C   25354.72251896 -.00000067  00000+0  00000+0 0  9995",
        "tle_line2": "2 61187  54.6304 308.4277 0002527 339.9286 201.8737  1.86230401  5934"
      },
      "geometry": {
        "type": "Point",
        "coordinates": [
          81.17546575498143,
          45.96308593083507
        ]
      }
    }
  ]
}